0 FENGYUN 1C DEB
1 30464U 99025AGB 13281.43836190 -.00000042  00000-0  10857-5 0  7554
2 30464 098.9832 247.2589 0111744 129.6755 353.6069 14.09000275344751
0 FENGYUN 1C DEB
1 30464U 99025AGB 13282.63324929 -.00000129  00000-0 -46539-4 0  7562
2 30464 098.9832 248.4503 0111775 126.3450 294.5269 14.09001395344928
0 FENGYUN 1C DEB
1 30464U 99025AGB 13283.71100932 -.00000132  00000-0 -48407-4 0  7579
2 30464 098.9833 249.5248 0111800 123.3426 001.3372 14.09001442345075
0 FENGYUN 1C DEB
1 30464U 99025AGB 13285.20230240 -.00000042  00000-0  70317-6 0  7588
2 30464 098.9835 251.0114 0111831 119.1972 005.7421 14.09000471345287
0 FENGYUN 1C DEB
1 30464U 99025AGB 13286.82314352  .00000163  00000-0  11268-3 0  7595
2 30464 098.9838 252.6272 0111853 114.6901 307.2655 14.08998963345514
0 FENGYUN 1C DEB
1 30464U 99025AGB 13288.18397347  .00000333  00000-0  20553-3 0  7609
2 30464 098.9842 253.9837 0111850 110.9125 009.9013 14.08998688345703
0 FENGYUN 1C DEB
1 30464U 99025AGB 13289.74606661  .00000344  00000-0  21129-3 0  7617
2 30464 098.9848 255.5409 0111848 106.5725 013.4173 14.08999372345928
0 FENGYUN 1C DEB
1 30464U 99025AGB 13291.45069898  .00000223  00000-0  14520-3 0  7627
2 30464 098.9853 257.2402 0111867 101.8277 019.9504 14.09001529346162
0 FENGYUN 1C DEB
1 30464U 99025AGB 13292.51581865  .00000123  00000-0  91082-4 0  7637
2 30464 098.9854 258.3021 0111880 098.8644 022.6388 14.09003079346310
0 FENGYUN 1C DEB
1 30464U 99025AGB 13293.85247227  .00000024  00000-0  36957-4 0  7647
2 30464 098.9855 259.6349 0111885 095.1451 322.6581 14.09004551346504
0 FENGYUN 1C DEB
1 30464U 99025AGB 13294.91926965 -.00000020  00000-0  12856-4 0  7658
2 30464 098.9856 260.6987 0111890 092.1730 333.8733 14.09005193346650
